0 FREGAT DEB
1 31572U 07020B   13282.41393372  .00136964  00000-0  26403-1 0  6942
2 31572 051.9870 105.8093 0056246 157.7562 278.4507 14.61326507326898
0 FREGAT DEB
1 31572U 07020B   13282.83012806  .00100282  00000-0  19392-1 0  6952
2 31572 051.9864 104.0292 0057250 159.3102 307.7703 14.61413702326952
0 FREGAT DEB
1 31572U 07020B   13283.49951049  .00118241  00000-0  22750-1 0  6963
2 31572 051.9864 101.1589 0056772 161.4490 229.5285 14.61526774327053
0 FREGAT DEB
1 31572U 07020B   13283.99910050  .00110658  00000-0  21267-1 0  6972
2 31572 051.9865 099.0173 0057432 163.4208 337.8063 14.61608416327120
0 FREGAT DEB
1 31572U 07020B   13284.52683388  .00121367  00000-0  23252-1 0  6989
2 31572 051.9868 096.7535 0056684 164.7902 234.9990 14.61699662327198
0 FREGAT DEB
1 31572U 07020B   13285.48269457  .00110796  00000-0  21167-1 0  7003
2 31572 051.9850 092.6541 0056820 167.5588 225.4369 14.61897433327342
0 FREGAT DEB
1 31572U 07020B   13285.90978039  .00127391  00000-0  24226-1 0  7012
2 31572 051.9848 090.8216 0056714 168.6699 313.4361 14.61989011327406
0 FREGAT DEB
1 31572U 07020B   13286.93775731  .00123340  00000-0  23350-1 0  7028
2 31572 051.9843 086.4118 0056388 172.1657 324.0469 14.62231865327555
0 FREGAT DEB
1 31572U 07020B   13287.46600819  .00147281  00000-0  27707-1 0  7032
2 31572 051.9842 084.1444 0055899 173.7034 225.0486 14.62365106327626
0 FREGAT DEB
1 31572U 07020B   13287.75233456  .00202211  00000-0  37662-1 0  7040
2 31572 051.9848 082.9157 0055191 174.6110 292.4772 14.62464387327671
0 FREGAT DEB
1 31572U 07020B   13287.89234847  .00259923  00000-0  47925-1 0  7056
2 31572 051.9829 082.3145 0055631 175.7098 309.0233 14.62515985327697
0 FREGAT DEB
1 31572U 07020B   13288.49168566  .00318126  00000-0  57766-1 0  7063
2 31572 051.9830 079.7397 0054207 177.1957 225.4799 14.62863691327784
0 FREGAT DEB
1 31572U 07020B   13288.57480750  .00265678  00000-0  48555-1 0  7074
2 31572 051.9830 079.3822 0054284 177.5402 303.1705 14.62919871327791
0 FREGAT DEB
1 31572U 07020B   13289.79818789  .00306046  00000-0  54986-1 0  7087
2 31572 051.9811 074.1247 0053589 183.4203 265.4266 14.63440072327971
0 FREGAT DEB
1 31572U 07020B   13290.54119057  .00295796  00000-0  52798-1 0  7093
2 31572 051.9787 070.9283 0054042 188.2151 217.9307 14.63785912328083
0 FREGAT DEB
1 31572U 07020B   13291.43996231  .00162275  00000-0  29372-1 0  7108
2 31572 051.9794 067.0637 0054403 192.6959 272.9356 14.64041364328214
0 FREGAT DEB
1 31572U 07020B   13291.78186005  .00147336  00000-0  26691-1 0  7119
2 31572 051.9774 065.5902 0054329 193.6895 275.0574 14.64107312328264
0 FREGAT DEB
1 31572U 07020B   13292.46488488  .00128947  00000-0  23346-1 0  7127
2 31572 051.9787 062.6496 0053514 195.1534 276.0491 14.64288506328361
0 FREGAT DEB
1 31572U 07020B   13292.81479549  .00157597  00000-0  28353-1 0  7131
2 31572 051.9785 061.1418 0052715 195.5066 321.4299 14.64400234328414
0 FREGAT DEB
1 31572U 07020B   13293.13689881  .00179028  00000-0  32029-1 0  7148
2 31572 051.9789 059.7539 0051825 196.5157 219.6182 14.64533434328450
0 FREGAT DEB
1 31572U 07020B   13293.49004334  .00270088  00000-0  47446-1 0  7159
2 31572 051.9774 058.2333 0051270 198.8436 280.5084 14.64758161328510
0 FREGAT DEB
1 31572U 07020B   13293.83431503  .00281943  00000-0  49291-1 0  7162
2 31572 051.9764 056.7495 0051330 200.8259 295.1157 14.64892394328560
0 FREGAT DEB
1 31572U 07020B   13294.50859383  .00283265  00000-0  49160-1 0  7172
2 31572 051.9753 053.8416 0051527 205.0573 249.3529 14.65204243328669
0 FREGAT DEB
1 31572U 07020B   13295.11373580  .00238043  00000-0  41346-1 0  7183
2 31572 051.9741 051.2316 0052074 208.8548 199.7610 14.65448163328758
0 FREGAT DEB
1 31572U 07020B   13295.46189227  .00212622  00000-0  37005-1 0  7197
2 31572 051.9755 049.7293 0051256 209.0228 237.4853 14.65553577328809
0 FREGAT DEB
1 31572U 07020B   13295.81366428  .00173106  00000-0  30262-1 0  7209
2 31572 051.9748 048.2120 0051459 210.6499 292.9557 14.65613168328852
